1 39234U 13044B 26162.13882605 -.00000059 00000+0 00000+0 0 9996 
2 39234 0.0680 98.3477 0003097 188.6256 96.4793 1.00270404 45195 
1 39237U 13045A 26162.13700604 .00000025 00000+0 00000+0 0 9990 
2 39237 0.0410 92.5862 0002533 326.2099 315.0128 1.00271801 46894 
1 39256U 13050A 26161.88559185 .00000044 00000+0 00000+0 0 9995 
2 39256 5.2788 67.2414 0087765 188.0658 198.4542 1.00271024 45593 
1 39285U 13056A 26162.20103153 .00000167 00000+0 00000+0 0 9996 
2 39285 0.0632 327.5468 0002711 114.0399 278.8400 1.00269386 46355 
1 39360U 13058A 26161.91780745 .00000002 00000+0 00000+0 0 9995 
2 39360 0.0114 47.7834 0001681 116.7333 308.7742 1.00268329 46015 
1 39375U 13062A 26162.10303021 .00000167 00000+0 00000+0 0 9998 
2 39375 5.9417 72.4288 0001468 262.6773 356.4301 1.00273016 46044 
1 39460U 13071A 26161.71520853 -.00000252 00000+0 00000+0 0 9999 
2 39460 0.0286 281.2409 0002758 165.9648 164.3394 1.00269561 44364 
1 39476U 13073A 26162.06526282 .00000045 00000+0 00000+0 0 9998 
2 39476 0.0185 2.4111 0000510 322.5186 20.6097 1.00272691 45514 
1 39481U 13075A 26162.10689373 -.00000177 00000+0 00000+0 0 9999 
2 39481 0.0316 151.8471 0002374 278.3008 140.6136 1.00271160 45545 
1 39487U 13077A 26162.15191278 -.00000263 00000+0 00000+0 0 9990 
2 39487 0.0139 289.7929 0000446 94.1332 70.3130 1.00270327 46307 
1 39498U 14001A 26162.13882605 -.00000060 00000+0 00000+0 0 9994 
2 39498 0.0147 37.9208 0000930 248.5793 96.9621 1.00270922 45315 
1 39500U 14002A 26162.13969272 -.00000103 00000+0 00000+0 0 9993 
2 39500 0.0527 127.7541 0004393 338.5116 281.9978 1.00270277 45397 
1 39504U 14004A 26162.04469561 -.00000256 00000+0 00000+0 0 9994 
2 39504 3.9709 18.9802 0002967 198.5673 17.0256 1.00268940 44214 
1 39508U 14006A 26162.13891272 -.00000069 00000+0 00000+0 0 9990 
2 39508 0.0378 80.8845 0003941 345.0416 318.5015 1.00271120 45217 
1 39509U 14006B 26162.20293821 .00000000 00000+0 00000+0 0 9999 
2 39509 0.0170 3.3223 0001153 88.2291 278.8438 1.00271787 45023 
1 39522U 14007A 26162.20371821 .00000163 00000+0 00000+0 0 9992 
2 39522 0.0476 298.3525 0001362 21.4048 55.1238 1.00271177 44902 
1 39612U 14010A 26162.20753156 .00000047 00000+0 00000+0 0 9992 
2 39612 0.2406 85.8084 0003882 38.4481 271.6690 1.00302304 44751 
1 39613U 14010B 26162.20649155 .00000096 00000+0 00000+0 0 9990 
2 39613 0.0165 311.0557 0000136 5.8410 72.9934 1.00270942 44430 
1 39616U 14011A 26162.15669696 -.00000235 00000+0 00000+0 0 9996 
2 39616 0.0634 193.2872 0003768 274.9228 133.7169 1.00272048 44653 
1 39617U 14011B 26162.20007819 .00000154 00000+0 00000+0 0 9995 
2 39617 0.0519 325.0301 0001912 103.4036 286.6346 1.00270955 44605 
1 39635U 14017A 26161.77869507 .00000125 00000+0 00000+0 0 9990 
2 39635 28.9327 240.5136 0022979 189.5605 164.4642 1.00274335 44722 
1 39727U 14023A 26162.14289941 -.00000252 00000+0 00000+0 0 9991 
2 39727 5.1172 69.8130 0002758 37.8759 297.8784 1.00266164 44294 
1 39728U 14023B 26161.92182781 .00000078 00000+0 00000+0 0 9996 
2 39728 0.0294 55.3837 0000053 17.9008 216.3374 1.00271093 42397 
1 39773U 14030A 26161.98219618 .00000038 00000+0 00000+0 0 9996 
2 39773 0.0611 1.5828 0003859 78.4254 176.0326 1.00272785 44003 
1 40107U 14046A 26162.00239946 -.00000315 00000+0 00000+0 0 9995 
2 40107 0.0029 0.8461 0001238 87.9158 276.7787 1.00269442102089 
1 40141U 14052A 26162.29049331 -.00000345 00000+0 00000+0 0 9991 
2 40141 0.0195 18.1905 0000658 89.5693 16.3706 1.00269635 43024 
1 40146U 14054A 26161.65599649 -.00000130 00000+0 00000+0 0 9991 
2 40146 0.0630 293.9309 0001969 144.7874 212.4494 1.00271704 42960 
1 40147U 14054B 26162.14229273 -.00000224 00000+0 00000+0 0 9994 
2 40147 0.0524 51.5697 0003139 19.2760 331.3714 1.00271730 42844 
1 40267U 14060A 26162.22329212 -.00000259 00000+0 00000+0 0 9995 
2 40267 0.0134 322.1137 0000745 147.7960 10.7086 1.00269801 42700 
1 40269U 14061A 26161.87813236 -.00000146 00000+0 00000+0 0 9997 
2 40269 6.5024 89.0489 0022686 1.7061 207.6145 1.00270328 42629 
1 40271U 14062A 26161.33848773 -.00000134 00000+0 00000+0 0 9993 
2 40271 0.0239 44.0695 0000679 291.1202 310.2689 1.00279150 6726 
1 40272U 14062B 26161.32570103 -.00000242 00000+0 00000+0 0 9992 
2 40272 0.0154 12.2199 0001677 65.3390 226.5692 1.00269469 42553 
