OBJECT_NAME,OBJECT_ID,EPOCH,MEAN_MOTION,ECCENTRICITY,INCLINATION,RA_OF_ASC_NODE,ARG_OF_PERICENTER,MEAN_ANOMALY,EPHEMERIS_TYPE,CLASSIFICATION_TYPE,NORAD_CAT_ID,ELEMENT_SET_NO,REV_AT_EPOCH,BSTAR,MEAN_MOTION_DOT,MEAN_MOTION_DDOT
GSAT-7,2013-044B,2026-06-11T03:19:54.570720,1.00270404,.00030974,0.0680,98.3477,188.6256,96.4793,0,U,39234,999,4519,0,-.59E-6,0
AMOS-4,2013-045A,2026-06-11T03:17:17.321856,1.00271801,.00025338,0.0410,92.5862,326.2099,315.0128,0,U,39237,999,4689,0,.25E-6,0
AEHF-3 (USA 246),2013-050A,2026-06-10T21:15:15.135840,1.00271024,.00877653,5.2788,67.2414,188.0658,198.4542,0,U,39256,999,4559,0,.44E-6,0
ASTRA 2E,2013-056A,2026-06-11T04:49:29.124192,1.00269386,.0002711,0.0632,327.5468,114.0399,278.8400,0,U,39285,999,4635,0,.167E-5,0
FM-6,2013-058A,2026-06-10T22:01:38.563680,1.00268329,.00016818,0.0114,47.7834,116.7333,308.7742,0,U,39360,999,4601,0,.2E-7,0
RADUGA-1M 3,2013-062A,2026-06-11T02:28:21.810144,1.00273016,.00014686,5.9417,72.4288,262.6773,356.4301,0,U,39375,999,4604,0,.167E-5,0
SES-8,2013-071A,2026-06-10T17:09:54.016992,1.00269561,.00027587,0.0286,281.2409,165.9648,164.3394,0,U,39460,999,4436,0,-.252E-5,0
INMARSAT 5-F1,2013-073A,2026-06-11T01:33:58.707648,1.00272691,.00005103,0.0185,2.4111,322.5186,20.6097,0,U,39476,999,4551,0,.45E-6,0
TKSAT-1 (TUPAC KATARI),2013-075A,2026-06-11T02:33:55.618272,1.00271160,.00023749,0.0316,151.8471,278.3008,140.6136,0,U,39481,999,4554,0,-.177E-5,0
EXPRESS-AM5,2013-077A,2026-06-11T03:38:45.264192,1.00270327,.00004467,0.0139,289.7929,94.1332,70.3130,0,U,39487,999,4630,0,-.263E-5,0
GSAT-14,2014-001A,2026-06-11T03:19:54.570720,1.00270922,.00009309,0.0147,37.9208,248.5793,96.9621,0,U,39498,999,4531,0,-.6E-6,0
THAICOM 6,2014-002A,2026-06-11T03:21:09.451008,1.00270277,.00043935,0.0527,127.7541,338.5116,281.9978,0,U,39500,999,4539,0,-.103E-5,0
TDRS 12,2014-004A,2026-06-11T01:04:21.700704,1.00268940,.00029676,3.9709,18.9802,198.5673,17.0256,0,U,39504,999,4421,0,-.256E-5,0
ABS-2,2014-006A,2026-06-11T03:20:02.059008,1.00271120,.00039411,0.0378,80.8845,345.0416,318.5015,0,U,39508,999,4521,0,-.69E-6,0
ATHENA-FIDUS,2014-006B,2026-06-11T04:52:13.861344,1.00271787,.0001153,0.0170,3.3223,88.2291,278.8438,0,U,39509,999,4502,0,0,0
TURKSAT 4A,2014-007A,2026-06-11T04:53:21.253344,1.00271177,.00013626,0.0476,298.3525,21.4048,55.1238,0,U,39522,999,4490,0,.163E-5,0
EXPRESS-AT1,2014-010A,2026-06-11T04:58:50.726784,1.00302304,.00038823,0.2406,85.8084,38.4481,271.6690,0,U,39612,999,4475,0,.47E-6,0
EXPRESS-AT2,2014-010B,2026-06-11T04:57:20.869920,1.00270942,.00001364,0.0165,311.0557,5.8410,72.9934,0,U,39613,999,4443,0,.96E-6,0
AMAZONAS 4A,2014-011A,2026-06-11T03:45:38.617344,1.00272048,.00037688,0.0634,193.2872,274.9228,133.7169,0,U,39616,999,4465,0,-.235E-5,0
ASTRA 5B,2014-011B,2026-06-11T04:48:06.755616,1.00270955,.00019123,0.0519,325.0301,103.4036,286.6346,0,U,39617,999,4460,0,.154E-5,0
IRNSS-1B,2014-017A,2026-06-10T18:41:19.254048,1.00274335,.00229797,28.9327,240.5136,189.5605,164.4642,0,U,39635,999,4472,0,.125E-5,0
LUCH-5V,2014-023A,2026-06-11T03:25:46.509024,1.00266164,.00027583,5.1172,69.8130,37.8759,297.8784,0,U,39727,999,4429,0,-.252E-5,0
KAZSAT-3,2014-023B,2026-06-10T22:07:25.922784,1.00271093,.00000535,0.0294,55.3837,17.9008,216.3374,0,U,39728,999,4239,0,.78E-6,0
EUTELSAT 3B,2014-030A,2026-06-10T23:34:21.749952,1.00272785,.00038596,0.0611,1.5828,78.4254,176.0326,0,U,39773,999,4400,0,.38E-6,0
ASIASAT 8 (AMOS-7),2014-046A,2026-06-11T00:03:27.313344,1.00269442,.00012385,0.0029,0.8461,87.9158,276.7787,0,U,40107,999,10208,0,-.315E-5,0
ASIASAT 6,2014-052A,2026-06-11T06:58:18.621984,1.00269635,.00006583,0.0195,18.1905,89.5693,16.3706,0,U,40141,999,4302,0,-.345E-5,0
OPTUS 10,2014-054A,2026-06-10T15:44:38.096736,1.00271704,.00019691,0.0630,293.9309,144.7874,212.4494,0,U,40146,999,4296,0,-.13E-5,0
MEASAT-3B,2014-054B,2026-06-11T03:24:54.091872,1.00271730,.00031391,0.0524,51.5697,19.2760,331.3714,0,U,40147,999,4284,0,-.224E-5,0
HIMAWARI-8,2014-060A,2026-06-11T05:21:32.439168,1.00269801,.00007459,0.0134,322.1137,147.7960,10.7086,0,U,40267,999,4270,0,-.259E-5,0
IRNSS-1C,2014-061A,2026-06-10T21:04:30.635904,1.00270328,.0022686,6.5024,89.0489,1.7061,207.6145,0,U,40269,999,4262,0,-.146E-5,0
INTELSAT 30 (IS-30),2014-062A,2026-06-10T08:07:25.339872,1.00279150,.00006799,0.0239,44.0695,291.1202,310.2689,0,U,40271,999,672,0,-.134E-5,0
ARSAT 1,2014-062B,2026-06-10T07:49:00.568992,1.00269469,.00016776,0.0154,12.2199,65.3390,226.5692,0,U,40272,999,4255,0,-.242E-5,0
